IRIDIUM 136             
1 42962U 17061H   23194.70215868  .00000416  00000+0  14158-3 0  9996
2 42962  86.3977 112.2388 0002219  77.6783 282.4661 14.34216755301542
